{
  "type": "FeatureCollection",
  "features": [
    {
      "type": "Feature",
      "properties": {
        "norad_id": 66850,
        "name": "STARLINK-36105",
        "group": "last-30-days",
        "lat": 20.591595285336282,
        "lon": -172.23757171774147,
        "alt_km": 412.13292403345713,
        "timestamp": "2025-12-27T19:21:57.544583+00:00",
        "meta_object_name": "STARLINK-36105",
        "meta_object_id": "2025-281C",
        "meta_epoch": "2025-12-27T12:00:02.000160",
        "meta_mean_motion": 15.50547436,
        "meta_eccentricity": 9.36e-05,
        "meta_inclination": 43.0004,
        "meta_ra_of_asc_node": 33.335,
        "meta_arg_of_pericenter": 265.2432,
        "meta_mean_anomaly": 328.5109,
        "meta_ephemeris_type": 0,
        "meta_classification_type": "U",
        "meta_norad_cat_id": 66850,
        "meta_element_set_no": 999,
        "meta_rev_at_epoch": 375,
        "meta_bstar": 0.00037009,
        "meta_mean_motion_dot": 0.00021404,
        "meta_mean_motion_ddot": 0,
        "tle_line1": "1 66850U 25281C   25361.50002315  .00021404  00000+0  37009-3 0  9998",
        "tle_line2": "2 66850  43.0004  33.3350 0000936 265.2432 328.5109 15.50547436  3750"
      },
      "geometry": {
        "type": "Point",
        "coordinates": [
          -172.23757171774147,
          20.591595285336282
        ]
      }
    },
    {
      "type": "Feature",
      "properties": {
        "norad_id": 66851,
        "name": "STARLINK-36094",
        "group": "last-30-days",
        "lat": 19.385581973595254,
        "lon": -170.65108045245395,
        "alt_km": 412.3187731150492,
        "timestamp": "2025-12-27T19:21:57.544592+00:00",
        "meta_object_name": "STARLINK-36094",
        "meta_object_id": "2025-281D",
        "meta_epoch": "2025-12-27T12:00:02.000160",
        "meta_mean_motion": 15.50556861,
        "meta_eccentricity": 9.81e-05,
        "meta_inclination": 43.0004,
        "meta_ra_of_asc_node": 33.3296,
        "meta_arg_of_pericenter": 264.4739,
        "meta_mean_anomaly": 331.197,
        "meta_ephemeris_type": 0,
        "meta_classification_type": "U",
        "meta_norad_cat_id": 66851,
        "meta_element_set_no": 999,
        "meta_rev_at_epoch": 375,
        "meta_bstar": 4.2001e-05,
        "meta_mean_motion_dot": 2.121e-05,
        "meta_mean_motion_ddot": 0,
        "tle_line1": "1 66851U 25281D   25361.50002315  .00002121  00000+0  42001-4 0  9993",
        "tle_line2": "2 66851  43.0004  33.3296 0000981 264.4739 331.1970 15.50556861  3759"
      },
      "geometry": {
        "type": "Point",
        "coordinates": [
          -170.65108045245395,
          19.385581973595254
        ]
      }
    },
    {
      "type": "Feature",
      "properties": {
        "norad_id": 66852,
        "name": "STARLINK-35992",
        "group": "last-30-days",
        "lat": 18.161737270653845,
        "lon": -169.0815443505647,
        "alt_km": 412.52152539805684,
        "timestamp": "2025-12-27T19:21:57.544601+00:00",
        "meta_object_name": "STARLINK-35992",
        "meta_object_id": "2025-281E",
        "meta_epoch": "2025-12-27T12:00:02.000160",
        "meta_mean_motion": 15.50571439,
        "meta_eccentricity": 4.68e-05,
        "meta_inclination": 43.0005,
        "meta_ra_of_asc_node": 33.3254,
        "meta_arg_of_pericenter": 312.4267,
        "meta_mean_anomaly": 285.1534,
        "meta_ephemeris_type": 0,
        "meta_classification_type": "U",
        "meta_norad_cat_id": 66852,
        "meta_element_set_no": 999,
        "meta_rev_at_epoch": 375,
        "meta_bstar": -0.00031386,
        "meta_mean_motion_dot": -0.00018703,
        "meta_mean_motion_ddot": 0,
        "tle_line1": "1 66852U 25281E   25361.50002315 -.00018703  00000+0 -31386-3 0  9992",
        "tle_line2": "2 66852  43.0005  33.3254 0000468 312.4267 285.1534 15.50571439  3757"
      },
      "geometry": {
        "type": "Point",
        "coordinates": [
          -169.0815443505647,
          18.161737270653845
        ]
      }
    },
    {
      "type": "Feature",
      "properties": {
        "norad_id": 66853,
        "name": "STARLINK-35986",
        "group": "last-30-days",
        "lat": 16.931063780255908,
        "lon": -167.54204433483454,
        "alt_km": 412.652276518671,
        "timestamp": "2025-12-27T19:21:57.544612+00:00",
        "meta_object_name": "STARLINK-35986",
        "meta_object_id": "2025-281F",
        "meta_epoch": "2025-12-27T12:00:02.000160",
        "meta_mean_motion": 15.50572982,
        "meta_eccentricity": 3.99e-05,
        "meta_inclination": 43.0004,
        "meta_ra_of_asc_node": 33.3205,
        "meta_arg_of_pericenter": 304.4806,
        "meta_mean_anomaly": 295.0169,
        "meta_ephemeris_type": 0,
        "meta_classification_type": "U",
        "meta_norad_cat_id": 66853,
        "meta_element_set_no": 999,
        "meta_rev_at_epoch": 375,
        "meta_bstar": -0.0003627,
        "meta_mean_motion_dot": -0.00021554,
        "meta_mean_motion_ddot": 0,
        "tle_line1": "1 66853U 25281F   25361.50002315 -.00021554  00000+0 -36270-3 0  9998",
        "tle_line2": "2 66853  43.0004  33.3205 0000399 304.4806 295.0169 15.50572982  3754"
      },
      "geometry": {
        "type": "Point",
        "coordinates": [
          -167.54204433483454,
          16.931063780255908
        ]
      }
    },
    {
      "type": "Feature",
      "properties": {
        "norad_id": 66854,
        "name": "STARLINK-36087",
        "group": "last-30-days",
        "lat": 15.688450628230187,
        "lon": -166.02223804699878,
        "alt_km": 412.84937593471204,
        "timestamp": "2025-12-27T19:21:57.544621+00:00",
        "meta_object_name": "STARLINK-36087",
        "meta_object_id": "2025-281G",
        "meta_epoch": "2025-12-27T12:00:02.000160",
        "meta_mean_motion": 15.50581033,
        "meta_eccentricity": 3.89e-05,
        "meta_inclination": 43.0004,
        "meta_ra_of_asc_node": 33.3154,
        "meta_arg_of_pericenter": 311.8417,
        "meta_mean_anomaly": 289.569,
        "meta_ephemeris_type": 0,
        "meta_classification_type": "U",
        "meta_norad_cat_id": 66854,
        "meta_element_set_no": 999,
        "meta_rev_at_epoch": 375,
        "meta_bstar": -0.00056308,
        "meta_mean_motion_dot": -0.00033234,
        "meta_mean_motion_ddot": 0,
        "tle_line1": "1 66854U 25281G   25361.50002315 -.00033234  00000+0 -56308-3 0  9991",
        "tle_line2": "2 66854  43.0004  33.3154 0000389 311.8417 289.5690 15.50581033  3751"
      },
      "geometry": {
        "type": "Point",
        "coordinates": [
          -166.02223804699878,
          15.688450628230187
        ]
      }
    },
    {
      "type": "Feature",
      "properties": {
        "norad_id": 66855,
        "name": "STARLINK-36090",
        "group": "last-30-days",
        "lat": 14.43682230524349,
        "lon": -164.52236461651782,
        "alt_km": 413.08054374409767,
        "timestamp": "2025-12-27T19:21:57.544631+00:00",
        "meta_object_name": "STARLINK-36090",
        "meta_object_id": "2025-281H",
        "meta_epoch": "2025-12-27T12:00:02.000160",
        "meta_mean_motion": 15.50589143,
        "meta_eccentricity": 4.29e-05,
        "meta_inclination": 43.0004,
        "meta_ra_of_asc_node": 33.3106,
        "meta_arg_of_pericenter": 317.6963,
        "meta_mean_anomaly": 285.627,
        "meta_ephemeris_type": 0,
        "meta_classification_type": "U",
        "meta_norad_cat_id": 66855,
        "meta_element_set_no": 999,
        "meta_rev_at_epoch": 363,
        "meta_bstar": -0.0008265,
        "meta_mean_motion_dot": -0.00048543,
        "meta_mean_motion_ddot": 0,
        "tle_line1": "1 66855U 25281H   25361.50002315 -.00048543  00000+0 -82650-3 0  9990",
        "tle_line2": "2 66855  43.0004  33.3106 0000429 317.6963 285.6270 15.50589143  3632"
      },
      "geometry": {
        "type": "Point",
        "coordinates": [
          -164.52236461651782,
          14.43682230524349
        ]
      }
    },
    {
      "type": "Feature",
      "properties": {
        "norad_id": 66856,
        "name": "STARLINK-36072",
        "group": "last-30-days",
        "lat": 13.182560647127666,
        "lon": -163.04788854917533,
        "alt_km": 413.2927792355622,
        "timestamp": "2025-12-27T19:21:57.544640+00:00",
        "meta_object_name": "STARLINK-36072",
        "meta_object_id": "2025-281J",
        "meta_epoch": "2025-12-27T12:00:02.000160",
        "meta_mean_motion": 15.50559311,
        "meta_eccentricity": 9.49e-05,
        "meta_inclination": 43.0004,
        "meta_ra_of_asc_node": 33.3052,
        "meta_arg_of_pericenter": 276.4502,
        "meta_mean_anomaly": 328.8034,
        "meta_ephemeris_type": 0,
        "meta_classification_type": "U",
        "meta_norad_cat_id": 66856,
        "meta_element_set_no": 999,
        "meta_rev_at_epoch": 375,
        "meta_bstar": 2.5295e-05,
        "meta_mean_motion_dot": 1.142e-05,
        "meta_mean_motion_ddot": 0,
        "tle_line1": "1 66856U 25281J   25361.50002315  .00001142  00000+0  25295-4 0  9996",
        "tle_line2": "2 66856  43.0004  33.3052 0000949 276.4502 328.8034 15.50559311  3756"
      },
      "geometry": {
        "type": "Point",
        "coordinates": [
          -163.04788854917533,
          13.182560647127666
        ]
      }
    }
  ]
}